{"type": "FeatureCollection", "features": [{"type": "Feature", "geometry": {"type": "Point", "coordinates": [-172.2, 23.2]}, "properties": {"storm_id": "EP152026", "storm_name": "NOLO", "ri_probability": 0.06, "ri_source": "noaa_aid_stack", "category": "Category 3", "vmax_kt": 100.0, "mslp_hpa": 959.0, "basin": "EP"}}, {"type": "Feature", "geometry": {"type": "Point", "coordinates": [-112.3, 19.7]}, "properties": {"storm_id": "EP182026", "storm_name": "RACHEL", "ri_probability": 0.13, "ri_source": "noaa_aid_stack", "category": "Category 1", "vmax_kt": 70.0, "mslp_hpa": 977.0, "basin": "EP"}}, {"type": "Feature", "geometry": {"type": "Point", "coordinates": [146.7, 20.8]}, "properties": {"storm_id": "WP262026", "storm_name": "Choi-Wan", "ri_probability": 0.0317, "ri_source": "v8.2", "category": "Category 2", "vmax_kt": 95.0, "mslp_hpa": null, "basin": "WP"}}]}
