{"type": "FeatureCollection", "features": [{"type": "Feature", "geometry": {"type": "Point", "coordinates": [-83.007, 27.609]}, "properties": {"storm_id": "933218", "probability": 0.0069, "risk_band": "minimal", "mucape": 2048.0, "srh01": 65.0, "maxllaz": 0.009}}, {"type": "Feature", "geometry": {"type": "Point", "coordinates": [-83.124, 27.685]}, "properties": {"storm_id": "933333", "probability": 0.0053, "risk_band": "minimal", "mucape": 2076.0, "srh01": 75.0, "maxllaz": 0.007}}, {"type": "Feature", "geometry": {"type": "Point", "coordinates": [-84.1655, 28.9273]}, "properties": {"storm_id": "933073", "probability": 0.0013, "risk_band": "minimal", "mucape": 1349.0, "srh01": 88.0, "maxllaz": 0.003}}, {"type": "Feature", "geometry": {"type": "Point", "coordinates": [-83.8953, 28.2163]}, "properties": {"storm_id": "933284", "probability": 0.0005, "risk_band": "minimal", "mucape": 2248.0, "srh01": 76.0, "maxllaz": 0.003}}, {"type": "Feature", "geometry": {"type": "Point", "coordinates": [-80.512, 27.821]}, "properties": {"storm_id": "932777", "probability": 0.0005, "risk_band": "minimal", "mucape": 3001.0, "srh01": 46.0, "maxllaz": 0.007}}, {"type": "Feature", "geometry": {"type": "Point", "coordinates": [-83.2385, 28.2234]}, "properties": {"storm_id": "932826", "probability": 0.0004, "risk_band": "minimal", "mucape": 1397.0, "srh01": 116.0, "maxllaz": 0.003}}, {"type": "Feature", "geometry": {"type": "Point", "coordinates": [-83.838, 27.847]}, "properties": {"storm_id": "933300", "probability": 0.0003, "risk_band": "minimal", "mucape": 2511.0, "srh01": 76.0, "maxllaz": 0.002}}, {"type": "Feature", "geometry": {"type": "Point", "coordinates": [-83.62, 27.9008]}, "properties": {"storm_id": "933152", "probability": 0.0003, "risk_band": "minimal", "mucape": 2054.0, "srh01": 87.0, "maxllaz": 0.003}}, {"type": "Feature", "geometry": {"type": "Point", "coordinates": [-84.277, 27.864]}, "properties": {"storm_id": "933163", "probability": 0.0003, "risk_band": "minimal", "mucape": 2932.0, "srh01": 24.0, "maxllaz": 0.005}}, {"type": "Feature", "geometry": {"type": "Point", "coordinates": [-80.4792, 27.6542]}, "properties": {"storm_id": "933348", "probability": 0.0002, "risk_band": "minimal", "mucape": 2705.0, "srh01": 54.0, "maxllaz": 0.008}}, {"type": "Feature", "geometry": {"type": "Point", "coordinates": [-83.8256, 28.7811]}, "properties": {"storm_id": "933295", "probability": 0.0002, "risk_band": "minimal", "mucape": 1400.0, "srh01": 57.0, "maxllaz": 0.002}}, {"type": "Feature", "geometry": {"type": "Point", "coordinates": [-83.3425, 27.9337]}, "properties": {"storm_id": "933330", "probability": 0.0002, "risk_band": "minimal", "mucape": 1742.0, "srh01": 96.0, "maxllaz": 0.002}}, {"type": "Feature", "geometry": {"type": "Point", "coordinates": [-80.872, 28.134]}, "properties": {"storm_id": "933075", "probability": 0.0001, "risk_band": "minimal", "mucape": 2857.0, "srh01": 34.0, "maxllaz": 0.004}}, {"type": "Feature", "geometry": {"type": "Point", "coordinates": [-86.1312, 29.1225]}, "properties": {"storm_id": "933215", "probability": 0.0001, "risk_band": "minimal", "mucape": 1823.0, "srh01": 88.0, "maxllaz": 0.002}}, {"type": "Feature", "geometry": {"type": "Point", "coordinates": [-81.6065, 30.357]}, "properties": {"storm_id": "933334", "probability": 0.0001, "risk_band": "minimal", "mucape": 618.0, "srh01": 2.0, "maxllaz": 0.009}}, {"type": "Feature", "geometry": {"type": "Point", "coordinates": [-80.358, 27.351]}, "properties": {"storm_id": "933241", "probability": 0.0001, "risk_band": "minimal", "mucape": 2687.0, "srh01": 36.0, "maxllaz": 0.004}}, {"type": "Feature", "geometry": {"type": "Point", "coordinates": [-85.5143, 28.9633]}, "properties": {"storm_id": "932929", "probability": 0.0001, "risk_band": "minimal", "mucape": 1674.0, "srh01": 87.0, "maxllaz": 0.002}}, {"type": "Feature", "geometry": {"type": "Point", "coordinates": [-81.3725, 30.3456]}, "properties": {"storm_id": "933214", "probability": 0.0001, "risk_band": "minimal", "mucape": 1275.0, "srh01": 16.0, "maxllaz": 0.003}}, {"type": "Feature", "geometry": {"type": "Point", "coordinates": [-80.7033, 30.2944]}, "properties": {"storm_id": "933326", "probability": 0.0001, "risk_band": "minimal", "mucape": 2010.0, "srh01": 43.0, "maxllaz": 0.002}}, {"type": "Feature", "geometry": {"type": "Point", "coordinates": [-82.7209, 27.64]}, "properties": {"storm_id": "933301", "probability": 0.0001, "risk_band": "minimal", "mucape": 2062.0, "srh01": 50.0, "maxllaz": 0.003}}, {"type": "Feature", "geometry": {"type": "Point", "coordinates": [-84.3233, 27.5892]}, "properties": {"storm_id": "933302", "probability": 0.0001, "risk_band": "minimal", "mucape": 3099.0, "srh01": 20.0, "maxllaz": 0.003}}, {"type": "Feature", "geometry": {"type": "Point", "coordinates": [-79.4868, 32.0211]}, "properties": {"storm_id": "932975", "probability": 0.0001, "risk_band": "minimal", "mucape": 821.0, "srh01": 13.0, "maxllaz": 0.002}}, {"type": "Feature", "geometry": {"type": "Point", "coordinates": [-80.8929, 30.005]}, "properties": {"storm_id": "932936", "probability": 0.0001, "risk_band": "minimal", "mucape": 2124.0, "srh01": 45.0, "maxllaz": 0.004}}, {"type": "Feature", "geometry": {"type": "Point", "coordinates": [-96.9704, 25.0773]}, "properties": {"storm_id": "933273", "probability": 0.0001, "risk_band": "minimal", "mucape": 1201.0, "srh01": 24.0, "maxllaz": 0.004}}, {"type": "Feature", "geometry": {"type": "Point", "coordinates": [-80.3947, 30.4533]}, "properties": {"storm_id": "933264", "probability": 0.0001, "risk_band": "minimal", "mucape": 2125.0, "srh01": 35.0, "maxllaz": 0.002}}, {"type": "Feature", "geometry": {"type": "Point", "coordinates": [-95.0133, 27.87]}, "properties": {"storm_id": "933081", "probability": 0.0001, "risk_band": "minimal", "mucape": 1824.0, "srh01": 0.0, "maxllaz": 0.002}}, {"type": "Feature", "geometry": {"type": "Point", "coordinates": [-97.2736, 25.7534]}, "properties": {"storm_id": "933097", "probability": 5e-05, "risk_band": "minimal", "mucape": 1884.0, "srh01": 39.0, "maxllaz": 0.004}}, {"type": "Feature", "geometry": {"type": "Point", "coordinates": [-82.375, 27.3733]}, "properties": {"storm_id": "933136", "probability": 5e-05, "risk_band": "minimal", "mucape": 2740.0, "srh01": 23.0, "maxllaz": 0.004}}, {"type": "Feature", "geometry": {"type": "Point", "coordinates": [-80.25, 26.8388]}, "properties": {"storm_id": "933245", "probability": 4e-05, "risk_band": "minimal", "mucape": 2875.0, "srh01": 28.0, "maxllaz": 0.002}}, {"type": "Feature", "geometry": {"type": "Point", "coordinates": [-82.8258, 28.3042]}, "properties": {"storm_id": "933210", "probability": 4e-05, "risk_band": "minimal", "mucape": 1514.0, "srh01": 80.0, "maxllaz": 0.001}}, {"type": "Feature", "geometry": {"type": "Point", "coordinates": [-86.5162, 29.4875]}, "properties": {"storm_id": "933347", "probability": 4e-05, "risk_band": "minimal", "mucape": 896.0, "srh01": 39.0, "maxllaz": 0.001}}, {"type": "Feature", "geometry": {"type": "Point", "coordinates": [-82.4968, 27.9097]}, "properties": {"storm_id": "933211", "probability": 3e-05, "risk_band": "minimal", "mucape": 1916.0, "srh01": 56.0, "maxllaz": 0.001}}, {"type": "Feature", "geometry": {"type": "Point", "coordinates": [-95.2127, 27.8964]}, "properties": {"storm_id": "932909", "probability": 3e-05, "risk_band": "minimal", "mucape": 2096.0, "srh01": 0.0, "maxllaz": 0.001}}, {"type": "Feature", "geometry": {"type": "Point", "coordinates": [-96.58, 25.134]}, "properties": {"storm_id": "933343", "probability": 3e-05, "risk_band": "minimal", "mucape": 1360.0, "srh01": 12.0, "maxllaz": 0.002}}, {"type": "Feature", "geometry": {"type": "Point", "coordinates": [-93.483, 27.594]}, "properties": {"storm_id": "933349", "probability": 3e-05, "risk_band": "minimal", "mucape": 1422.0, "srh01": 23.0, "maxllaz": 0.001}}, {"type": "Feature", "geometry": {"type": "Point", "coordinates": [-96.8597, 24.853]}, "properties": {"storm_id": "933144", "probability": 2e-05, "risk_band": "minimal", "mucape": 962.0, "srh01": 20.0, "maxllaz": 0.002}}, {"type": "Feature", "geometry": {"type": "Point", "coordinates": [-80.2887, 27.0719]}, "properties": {"storm_id": "933200", "probability": 2e-05, "risk_band": "minimal", "mucape": 2861.0, "srh01": 51.0, "maxllaz": 0.002}}, {"type": "Feature", "geometry": {"type": "Point", "coordinates": [-97.1439, 26.0577]}, "properties": {"storm_id": "933338", "probability": 2e-05, "risk_band": "minimal", "mucape": 1690.0, "srh01": 11.0, "maxllaz": 0.002}}, {"type": "Feature", "geometry": {"type": "Point", "coordinates": [-96.96, 25.2688]}, "properties": {"storm_id": "933351", "probability": 2e-05, "risk_band": "minimal", "mucape": 1481.0, "srh01": 22.0, "maxllaz": 0.002}}, {"type": "Feature", "geometry": {"type": "Point", "coordinates": [-79.41, 24.3779]}, "properties": {"storm_id": "933316", "probability": 2e-05, "risk_band": "minimal", "mucape": 1816.0, "srh01": 0.0, "maxllaz": 0.001}}, {"type": "Feature", "geometry": {"type": "Point", "coordinates": [-96.56, 24.7964]}, "properties": {"storm_id": "933311", "probability": 2e-05, "risk_band": "minimal", "mucape": 1251.0, "srh01": 12.0, "maxllaz": 0.002}}, {"type": "Feature", "geometry": {"type": "Point", "coordinates": [-83.7015, 29.0615]}, "properties": {"storm_id": "933231", "probability": 2e-05, "risk_band": "minimal", "mucape": 921.0, "srh01": 52.0, "maxllaz": 0.002}}, {"type": "Feature", "geometry": {"type": "Point", "coordinates": [-97.588, 26.068]}, "properties": {"storm_id": "933350", "probability": 2e-05, "risk_band": "minimal", "mucape": 1660.0, "srh01": 5.0, "maxllaz": 0.003}}, {"type": "Feature", "geometry": {"type": "Point", "coordinates": [-81.4091, 27.2086]}, "properties": {"storm_id": "933155", "probability": 1e-05, "risk_band": "minimal", "mucape": 2569.0, "srh01": 21.0, "maxllaz": 0.001}}, {"type": "Feature", "geometry": {"type": "Point", "coordinates": [-80.7338, 26.7888]}, "properties": {"storm_id": "933077", "probability": 1e-05, "risk_band": "minimal", "mucape": 2566.0, "srh01": 0.0, "maxllaz": 0.001}}, {"type": "Feature", "geometry": {"type": "Point", "coordinates": [-96.3144, 24.5978]}, "properties": {"storm_id": "933250", "probability": 1e-05, "risk_band": "minimal", "mucape": 1079.0, "srh01": 16.0, "maxllaz": 0.001}}, {"type": "Feature", "geometry": {"type": "Point", "coordinates": [-92.5483, 28.075]}, "properties": {"storm_id": "933299", "probability": 1e-05, "risk_band": "minimal", "mucape": 878.0, "srh01": 2.0, "maxllaz": 0.001}}, {"type": "Feature", "geometry": {"type": "Point", "coordinates": [-95.813, 25.4588]}, "properties": {"storm_id": "933023", "probability": 1e-05, "risk_band": "minimal", "mucape": 1140.0, "srh01": 18.0, "maxllaz": 0.002}}, {"type": "Feature", "geometry": {"type": "Point", "coordinates": [-96.5684, 24.5626]}, "properties": {"storm_id": "933313", "probability": 9e-06, "risk_band": "minimal", "mucape": 1061.0, "srh01": 15.0, "maxllaz": 0.001}}, {"type": "Feature", "geometry": {"type": "Point", "coordinates": [-95.9756, 27.0467]}, "properties": {"storm_id": "933244", "probability": 9e-06, "risk_band": "minimal", "mucape": 1747.0, "srh01": 0.0, "maxllaz": 0.001}}, {"type": "Feature", "geometry": {"type": "Point", "coordinates": [-96.17, 24.6555]}, "properties": {"storm_id": "933346", "probability": 9e-06, "risk_band": "minimal", "mucape": 982.0, "srh01": 8.0, "maxllaz": 0.0}}, {"type": "Feature", "geometry": {"type": "Point", "coordinates": [-78.0837, 24.942]}, "properties": {"storm_id": "933167", "probability": 9e-06, "risk_band": "minimal", "mucape": 2331.0, "srh01": 34.0, "maxllaz": 0.001}}, {"type": "Feature", "geometry": {"type": "Point", "coordinates": [-96.2233, 24.7389]}, "properties": {"storm_id": "933312", "probability": 8e-06, "risk_band": "minimal", "mucape": 987.0, "srh01": 7.0, "maxllaz": 0.001}}, {"type": "Feature", "geometry": {"type": "Point", "coordinates": [-78.2258, 24.8625]}, "properties": {"storm_id": "933319", "probability": 8e-06, "risk_band": "minimal", "mucape": 2556.0, "srh01": 41.0, "maxllaz": 0.0}}, {"type": "Feature", "geometry": {"type": "Point", "coordinates": [-78.184, 25.1425]}, "properties": {"storm_id": "933342", "probability": 8e-06, "risk_band": "minimal", "mucape": 1995.0, "srh01": 30.0, "maxllaz": 0.0}}, {"type": "Feature", "geometry": {"type": "Point", "coordinates": [-95.5746, 25.7608]}, "properties": {"storm_id": "932956", "probability": 7e-06, "risk_band": "minimal", "mucape": 1384.0, "srh01": 12.0, "maxllaz": 0.002}}, {"type": "Feature", "geometry": {"type": "Point", "coordinates": [-79.8844, 24.7033]}, "properties": {"storm_id": "933345", "probability": 7e-06, "risk_band": "minimal", "mucape": 2030.0, "srh01": 4.0, "maxllaz": 0.001}}, {"type": "Feature", "geometry": {"type": "Point", "coordinates": [-84.3806, 26.695]}, "properties": {"storm_id": "933336", "probability": 7e-06, "risk_band": "minimal", "mucape": 3846.0, "srh01": 2.0, "maxllaz": 0.0}}, {"type": "Feature", "geometry": {"type": "Point", "coordinates": [-84.5583, 27.4294]}, "properties": {"storm_id": "933154", "probability": 6e-06, "risk_band": "minimal", "mucape": 3511.0, "srh01": 5.0, "maxllaz": 0.002}}, {"type": "Feature", "geometry": {"type": "Point", "coordinates": [-95.1538, 26.0023]}, "properties": {"storm_id": "933340", "probability": 6e-06, "risk_band": "minimal", "mucape": 1576.0, "srh01": 20.0, "maxllaz": 0.0}}, {"type": "Feature", "geometry": {"type": "Point", "coordinates": [-95.368, 25.41]}, "properties": {"storm_id": "933307", "probability": 6e-06, "risk_band": "minimal", "mucape": 1009.0, "srh01": 17.0, "maxllaz": 0.0}}, {"type": "Feature", "geometry": {"type": "Point", "coordinates": [-78.5895, 26.6895]}, "properties": {"storm_id": "933138", "probability": 5e-06, "risk_band": "minimal", "mucape": 2026.0, "srh01": 8.0, "maxllaz": 0.001}}, {"type": "Feature", "geometry": {"type": "Point", "coordinates": [-87.0491, 48.7045]}, "properties": {"storm_id": "933290", "probability": 5e-06, "risk_band": "minimal", "mucape": 556.0, "srh01": 154.0, "maxllaz": 0.003}}, {"type": "Feature", "geometry": {"type": "Point", "coordinates": [-96.4653, 24.428]}, "properties": {"storm_id": "933251", "probability": 5e-06, "risk_band": "minimal", "mucape": 933.0, "srh01": 14.0, "maxllaz": 0.002}}, {"type": "Feature", "geometry": {"type": "Point", "coordinates": [-95.67, 25.9214]}, "properties": {"storm_id": "933303", "probability": 4e-06, "risk_band": "minimal", "mucape": 1383.0, "srh01": 4.0, "maxllaz": 0.001}}, {"type": "Feature", "geometry": {"type": "Point", "coordinates": [-84.47, 27.08]}, "properties": {"storm_id": "933201", "probability": 4e-06, "risk_band": "minimal", "mucape": 3732.0, "srh01": 0.0, "maxllaz": 0.001}}, {"type": "Feature", "geometry": {"type": "Point", "coordinates": [-95.3813, 25.9735]}, "properties": {"storm_id": "933270", "probability": 4e-06, "risk_band": "minimal", "mucape": 1541.0, "srh01": 12.0, "maxllaz": 0.001}}, {"type": "Feature", "geometry": {"type": "Point", "coordinates": [-87.0625, 49.2587]}, "properties": {"storm_id": "933324", "probability": 4e-06, "risk_band": "minimal", "mucape": 542.0, "srh01": 211.0, "maxllaz": 0.001}}, {"type": "Feature", "geometry": {"type": "Point", "coordinates": [-87.0678, 49.5267]}, "properties": {"storm_id": "933257", "probability": 4e-06, "risk_band": "minimal", "mucape": 494.0, "srh01": 200.0, "maxllaz": 0.002}}, {"type": "Feature", "geometry": {"type": "Point", "coordinates": [-96.7142, 24.3442]}, "properties": {"storm_id": "933315", "probability": 4e-06, "risk_band": "minimal", "mucape": 709.0, "srh01": 7.0, "maxllaz": 0.001}}, {"type": "Feature", "geometry": {"type": "Point", "coordinates": [-95.8671, 24.85]}, "properties": {"storm_id": "933182", "probability": 4e-06, "risk_band": "minimal", "mucape": 844.0, "srh01": 8.0, "maxllaz": 0.001}}, {"type": "Feature", "geometry": {"type": "Point", "coordinates": [-83.1412, 29.2765]}, "properties": {"storm_id": "933328", "probability": 3e-06, "risk_band": "minimal", "mucape": 547.0, "srh01": 47.0, "maxllaz": 0.001}}, {"type": "Feature", "geometry": {"type": "Point", "coordinates": [-83.5048, 29.3068]}, "properties": {"storm_id": "933327", "probability": 3e-06, "risk_band": "minimal", "mucape": 602.0, "srh01": 52.0, "maxllaz": 0.001}}, {"type": "Feature", "geometry": {"type": "Point", "coordinates": [-87.395, 49.5121]}, "properties": {"storm_id": "933323", "probability": 3e-06, "risk_band": "minimal", "mucape": 496.0, "srh01": 184.0, "maxllaz": 0.001}}, {"type": "Feature", "geometry": {"type": "Point", "coordinates": [-86.4983, 49.5817]}, "properties": {"storm_id": "933321", "probability": 3e-06, "risk_band": "minimal", "mucape": 580.0, "srh01": 226.0, "maxllaz": 0.001}}, {"type": "Feature", "geometry": {"type": "Point", "coordinates": [-86.7511, 49.1678]}, "properties": {"storm_id": "933325", "probability": 3e-06, "risk_band": "minimal", "mucape": 487.0, "srh01": 198.0, "maxllaz": 0.001}}, {"type": "Feature", "geometry": {"type": "Point", "coordinates": [-95.5314, 25.0934]}, "properties": {"storm_id": "933181", "probability": 3e-06, "risk_band": "minimal", "mucape": 914.0, "srh01": 26.0, "maxllaz": 0.001}}, {"type": "Feature", "geometry": {"type": "Point", "coordinates": [-86.7233, 49.6222]}, "properties": {"storm_id": "933322", "probability": 2e-06, "risk_band": "minimal", "mucape": 578.0, "srh01": 215.0, "maxllaz": 0.001}}, {"type": "Feature", "geometry": {"type": "Point", "coordinates": [-85.3544, 49.7589]}, "properties": {"storm_id": "933320", "probability": 2e-06, "risk_band": "minimal", "mucape": 248.0, "srh01": 300.0, "maxllaz": 0.0}}]}